[{"OBJECT_NAME":"PHISAT 2","OBJECT_ID":"2024-149C","EPOCH":"2026-03-09T18:55:12.732384","MEAN_MOTION":15.29548632,"ECCENTRICITY":0.00011753,"INCLINATION":97.3806,"RA_OF_ASC_NODE":148.6498,"ARG_OF_PERICENTER":168.623,"MEAN_ANOMALY":191.5037,"EPHEMERIS_TYPE":0,"CLASSIFICATION_TYPE":"U","NORAD_CAT_ID":60470,"ELEMENT_SET_NO":999,"REV_AT_EPOCH":8679,"BSTAR":0.00031420974,"MEAN_MOTION_DOT":8.925e-5,"MEAN_MOTION_DDOT":0},{"OBJECT_NAME":"STARLINK-35912","OBJECT_ID":"2025-283E","EPOCH":"2026-03-09T06:09:28.436832","MEAN_MOTION":15.30191279,"ECCENTRICITY":7.821e-5,"INCLINATION":53.1609,"RA_OF_ASC_NODE":26.4811,"ARG_OF_PERICENTER":92.2957,"MEAN_ANOMALY":267.8133,"EPHEMERIS_TYPE":0,"CLASSIFICATION_TYPE":"U","NORAD_CAT_ID":66882,"ELEMENT_SET_NO":999,"REV_AT_EPOCH":1577,"BSTAR":0.0011334083,"MEAN_MOTION_DOT":0.00033351,"MEAN_MOTION_DDOT":0}]
